{
    "links": {
        "self": "http://www.neowsapp.com/rest/v1/neo/3991693?api_key=iIulBulltgU6a56xZRHN4H3l9WmuAYTsLGpBGhQ2"
    },
    "id": "3991693",
    "neo_reference_id": "3991693",
    "name": "(2020 DR1)",
    "designation": "2020 DR1",
    "nasa_jpl_url": "http://ssd.jpl.nasa.gov/sbdb.cgi?sstr=3991693",
    "absolute_magnitude_h": 24.546,
    "estimated_diameter": {
        "kilometers": {
            "estimated_diameter_min": 0.0327608361,
            "estimated_diameter_max": 0.0732554565
        },
        "meters": {
            "estimated_diameter_min": 32.7608360702,
            "estimated_diameter_max": 73.2554564528
        },
        "miles": {
            "estimated_diameter_min": 0.0203566335,
            "estimated_diameter_max": 0.0455188162
        },
        "feet": {
            "estimated_diameter_min": 107.4830614127,
            "estimated_diameter_max": 240.3394317486
        }
    },
    "is_potentially_hazardous_asteroid": false,
    "close_approach_data": [
        {
            "close_approach_date": "2020-03-02",
            "close_approach_date_full": "2020-Mar-02 06:22",
            "epoch_date_close_approach": 1583130120000,
            "relative_velocity": {
                "kilometers_per_second": "8.1882548949",
                "kilometers_per_hour": "29477.7176216377",
                "miles_per_hour": "18316.3073744004"
            },
            "miss_distance": {
                "astronomical": "0.1376696097",
                "lunar": "53.5534781733",
                "kilometers": "20595080.374851339",
                "miles": "12797189.5313689182"
            },
            "orbiting_body": "Earth"
        }
    ],
    "orbital_data": {
        "orbit_id": "2",
        "orbit_determination_date": "2020-02-22 10:48:50",
        "first_observation_date": "2020-02-16",
        "last_observation_date": "2020-02-21",
        "data_arc_in_days": 5,
        "observations_used": 16,
        "orbit_uncertainty": "9",
        "minimum_orbit_intersection": ".066827",
        "jupiter_tisserand_invariant": "3.579",
        "epoch_osculation": "2458897.5",
        "eccentricity": ".4942063042686062",
        "semi_major_axis": "2.102771988711237",
        "inclination": "2.727100810008503",
        "ascending_node_longitude": "1.523786341292616",
        "orbital_period": "1113.747395660996",
        "perihelion_distance": "1.063568815450709",
        "perihelion_argument": "178.918121831373",
        "aphelion_distance": "3.141975161971764",
        "perihelion_time": "2458922.134855478793",
        "mean_anomaly": "352.0371998112713",
        "mean_motion": ".3232330790648845",
        "equinox": "J2000",
        "orbit_class": {
            "orbit_class_type": "AMO",
            "orbit_class_description": "Near-Earth asteroid orbits similar to that of 1221 Amor",
            "orbit_class_range": "1.017 AU < q (perihelion) < 1.3 AU"
        }
    },
    "is_sentry_object": false
}